     2.100          NAVIGATION                              RINEX VERSION / TYPE
fic2rin                                 12/21/2008 01:12:26 PGM / RUN BY / DATE
                                                            END OF HEADER
 7 08 12 20  6  0  0.0  .235396437347D-04  .000000000000D+00  .000000000000D+00
     .106000000000D+03 -.334375000000D+01  .449090134978D-08  .229263816492D+01
    -.968575477600D-07  .231706199702D-02  .791251659393D-05  .515368495178D+04
     .540000000000D+06 -.167638063431D-07 -.657236173416D+00  .763684511185D-07
     .965376659081D+00  .230968750000D+03  .289622210597D+01 -.806997900416D-08
     .252867675811D-09  .100000000000D+01  .151000000000D+04  .000000000000D+00
     .340000000000D+01  .000000000000D+00 -.107102096081D-07  .106000000000D+03
     .532806000000D+06  .400000000000D+01
 8 08 12 20  6  0  0.0 -.182851217687D-03 -.159161572810D-11  .000000000000D+00
     .580000000000D+02 -.103125000000D+01  .401516724783D-08  .161526743305D+01
     .169500708580D-06  .105644105934D-01  .761821866035D-05  .515369787025D+04
     .540000000000D+06  .316649675369D-07 -.600160815153D+00  .152736902237D-06
     .986584471295D+00  .245218750000D+03  .296167682785D+01 -.781068248913D-08
     .137505727665D-09  .100000000000D+01  .151000000000D+04  .000000000000D+00
     .340000000000D+01  .000000000000D+00 -.419095158577D-08  .580000000000D+02
     .532806000000D+06  .400000000000D+01
 9 08 12 20  6  0  0.0  .306288711727D-04  .193267624127D-11  .000000000000D+00
     .410000000000D+02 -.931250000000D+01  .431589406003D-08  .133551321083D+01
    -.769272446632D-06  .200978263747D-01  .845454633236D-05  .515365749931D+04
     .540000000000D+06 -.286847352982D-06 -.692405152677D+00 -.365078449249D-06
     .974332235408D+00  .226375000000D+03  .145385651453D+01 -.811390940547D-08
     .332871008271D-09  .100000000000D+01  .151000000000D+04  .000000000000D+00
     .240000000000D+01  .000000000000D+00 -.558793544769D-08  .410000000000D+02
     .532806000000D+06  .400000000000D+01
10 08 12 20  6  0  0.0 -.848760828376D-05 -.341060513165D-12  .000000000000D+00
     .580000000000D+02  .122500000000D+02  .468733810359D-08 -.128551842581D+01
     .631436705589D-06  .834576133639D-02  .428035855293D-05  .515375272369D+04
     .540000000000D+06  .117346644402D-06 -.272737276835D+01 -.633299350739D-07
     .960918362107D+00  .291218750000D+03  .569242694009D+00 -.830427447779D-08
    -.535736601294D-10  .100000000000D+01  .151000000000D+04  .000000000000D+00
     .240000000000D+01  .000000000000D+00 -.279396772385D-08  .580000000000D+02
     .532806000000D+06  .400000000000D+01
11 08 12 20  6  0  0.0  .128061510623D-04 -.102318153949D-11  .000000000000D+00
     .200000000000D+02  .539687500000D+02  .605632369876D-08  .213197069698D+01
     .278465449810D-05  .906481395941D-02  .860914587975D-05  .515366754723D+04
     .540000000000D+06 -.210478901863D-06  .228067695757D+01 -.100582838058D-06
     .889958157232D+00  .176062500000D+03  .664347209002D+00 -.875643616929D-08
     .246438836595D-10  .100000000000D+01  .151000000000D+04  .000000000000D+00
     .240000000000D+01  .000000000000D+00 -.121071934700D-07  .200000000000D+02
     .532806000000D+06  .400000000000D+01
12 08 12 20  6  0  0.0 -.332460273057D-03  .295585778076D-11  .000000000000D+00
     .930000000000D+02 -.327187500000D+02  .466805158594D-08  .249629816927D+01
    -.178068876266D-05  .304597977083D-02  .631809234619D-05  .515375381470D+04
     .540000000000D+06  .353902578354D-07  .393351341279D+00  .577419996262D-07
     .965782070254D+00  .257812500000D+03 -.831799639794D+00 -.808855120634D-08
    -.310727228751D-10  .100000000000D+01  .151000000000D+04  .000000000000D+00
     .240000000000D+01  .000000000000D+00 -.116415321827D-07  .930000000000D+02
     .532806000000D+06  .400000000000D+01
13 08 12 20  6  0  0.0  .281764194369D-03  .147792889038D-11  .000000000000D+00
     .830000000000D+02 -.331250000000D+02  .373229832235D-08 -.149258547275D+01
    -.164471566677D-05  .362579547800D-02  .768713653088D-05  .515377841377D+04
     .540000000000D+06  .372529029846D-08 -.165187727690D+01  .104308128357D-06
     .995144467259D+00  .252562500000D+03  .151344913495D+01 -.773246494535D-08
    -.757174396496D-10  .100000000000D+01  .151000000000D+04  .000000000000D+00
     .240000000000D+01  .000000000000D+00 -.111758708954D-07  .830000000000D+02
     .532806000000D+06  .400000000000D+01
14 08 12 20  6  0  0.0 -.179518945515D-03  .500222085975D-11  .000000000000D+00
     .152000000000D+03 -.476250000000D+02  .380051544958D-08 -.194661897926D+01
    -.236928462982D-05  .447029003408D-02  .797957181931D-05  .515355837059D+04
     .540000000000D+06  .726431608200D-07 -.167040316528D+01 -.372529029846D-07
     .988761154419D+00  .240218750000D+03 -.210899742937D+01 -.773210778761D-08
    -.853606984729D-10  .100000000000D+01  .151000000000D+04  .000000000000D+00
     .240000000000D+01  .000000000000D+00 -.931322574615D-08  .152000000000D+03
     .532806000000D+06  .400000000000D+01
15 08 12 20  6  0  0.0 -.229428056628D-03 -.591171556152D-11  .000000000000D+00
     .710000000000D+02 -.375000000000D+02  .455983279248D-08 -.129147175046D+01
    -.203587114811D-05  .129883061163D-02  .829435884953D-05  .515374892426D+04
     .540000000000D+06 -.745058059692D-08 -.171792953498D+01 -.558793544769D-08
     .956971625641D+00  .219187500000D+03 -.875413183467D+00 -.816748306560D-08
    -.106433004790D-09  .100000000000D+01  .151000000000D+04  .000000000000D+00
     .240000000000D+01  .000000000000D+00 -.977888703346D-08  .710000000000D+02
     .532806000000D+06  .400000000000D+01
16 08 12 20  6  0  0.0  .877743586898D-04 -.250111042988D-11  .000000000000D+00
     .140000000000D+02 -.301250000000D+02  .460519182472D-08 -.426332963965D-01
    -.163540244102D-05  .486183236353D-02  .635161995888D-05  .515372490311D+04
     .540000000000D+06  .614672899246D-07  .410045030101D+00 -.409781932831D-07
     .967330863088D+00  .261375000000D+03 -.383937900852D+00 -.818462663684D-08
     .250010413937D-11  .100000000000D+01  .151000000000D+04  .000000000000D+00
     .240000000000D+01  .000000000000D+00 -.977888703346D-08  .140000000000D+02
     .532806000000D+06  .400000000000D+01
17 08 12 20  6  0  0.0  .424091704190D-04  .909494701773D-12  .000000000000D+00
     .230000000000D+02 -.434375000000D+01  .456197573889D-08 -.113006947778D+01
    -.286847352982D-06  .403206236660D-02  .968948006630D-05  .515361985779D+04
     .540000000000D+06  .134110450745D-06  .145177815120D+01 -.856816768646D-07
     .959255555290D+00  .194937500000D+03 -.278871679576D+01 -.791175812791D-08
    -.198222542479D-09  .100000000000D+01  .151000000000D+04  .000000000000D+00
     .240000000000D+01  .000000000000D+00 -.102445483208D-07  .230000000000D+02
     .532806000000D+06  .400000000000D+01
19 08 12 20  6  0  0.0  .347453169525D-04 -.341060513165D-12  .000000000000D+00
     .860000000000D+02 -.123437500000D+02  .457947646786D-08 -.185028291985D+01
    -.627711415291D-06  .499542406760D-02  .994466245174D-05  .515376528740D+04
     .540000000000D+06 -.838190317154D-07  .150830452897D+01  .186264514923D-08
     .956989805324D+00  .189031250000D+03 -.401845666851D+00 -.799926177279D-08
    -.106433004790D-09  .100000000000D+01  .151000000000D+04  .000000000000D+00
     .240000000000D+01  .000000000000D+00 -.144354999065D-07  .860000000000D+02
     .532806000000D+06  .400000000000D+01
20 08 12 20  6  0  0.0  .959215685725D-04 -.102318153949D-11  .000000000000D+00
     .690000000000D+02  .275000000000D+02  .506413951317D-08  .219427412947D+00
     .126287341118D-05  .374433060642D-02  .444985926151D-05  .515371800995D+04
     .540000000000D+06  .111758708954D-07 -.277325776591D+01  .130385160446D-07
     .944569149531D+00  .285593750000D+03  .131266310192D+01 -.857285709391D-08
    -.753602819154D-10  .100000000000D+01  .151000000000D+04  .000000000000D+00
     .240000000000D+01  .000000000000D+00 -.651925802231D-08  .690000000000D+02
     .532806000000D+06  .400000000000D+01
21 08 12 20  6  0  0.0  .376147218049D-04 -.170530256582D-11  .000000000000D+00
     .970000000000D+02  .722500000000D+02  .512521348571D-08  .133724078542D+01
     .395253300667D-05  .144586081151D-01  .876002013683D-05  .515366430473D+04
     .540000000000D+06 -.912696123123D-07  .250554196533D+01  .167638063431D-06
     .934911381303D+00  .197281250000D+03 -.265963433773D+01 -.850535428215D-08
    -.592881838766D-10  .100000000000D+01  .151000000000D+04  .000000000000D+00
     .240000000000D+01  .000000000000D+00 -.116415321827D-07  .970000000000D+02
     .532806000000D+06  .400000000000D+01
22 08 12 20  6  0  0.0  .207850709558D-03 -.682121026330D-12  .000000000000D+00
     .800000000000D+02  .219375000000D+02  .516592946741D-08 -.108039016812D+01
     .121071934700D-05  .502102135215D-02  .428035855293D-05  .515366865158D+04
     .540000000000D+06 -.558793544769D-07 -.271350596245D+01  .158324837685D-06
     .942630889869D+00  .287781250000D+03 -.180873652623D+01 -.860642992092D-08
    -.942896418278D-10  .100000000000D+01  .151000000000D+04  .000000000000D+00
     .485000000000D+01  .000000000000D+00 -.181607902050D-07  .800000000000D+02
     .532806000000D+06  .400000000000D+01
23 08 12 20  6  0  0.0  .383149366826D-03  .909494701773D-12  .000000000000D+00
     .430000000000D+02 -.327187500000D+02  .423946230491D-08 -.243860285997D+01
    -.166520476341D-05  .577213114593D-02  .741891562939D-05  .515366736603D+04
     .540000000000D+06 -.122934579849D-06 -.170016273284D+01  .111758708954D-07
     .970830865334D+00  .246000000000D+03  .288341042827D+01 -.795890294883D-08
    -.746459664470D-10  .100000000000D+01  .151000000000D+04  .000000000000D+00
     .240000000000D+01  .000000000000D+00 -.200234353542D-07  .430000000000D+02
     .532806000000D+06  .400000000000D+01
